ASTRA 2F                
1 38778U 12051A   23323.58130431  .00000157  00000+0  00000+0 0  9991
2 38778   0.0534 249.8697 0004269 338.8306  67.1412  1.00269246 31694
GSAT-10                 
1 38779U 12051B   23323.44894271 -.00000158  00000+0  00000+0 0  9998
2 38779   0.0510 108.6792 0004290 149.5677  44.6295  1.00271582 40683
INTELSAT 23 (IS-23)     
1 38867U 12057A   23323.42187865 -.00000277  00000+0  00000+0 0  9996
2 38867   0.0152 249.3599 0001188 357.5152 270.2366  1.00276047 40512
BEIDOU-2 G6             
1 38953U 12059A   23323.52082348 -.00000168  00000+0  00000+0 0  9994
2 38953   2.0209  81.6605 0007549 292.4470 315.7341  1.00270494 40478
LUCH-5B                 
1 38977U 12061A   23323.07098753 -.00000127  00000+0  00000+0 0  9995
2 38977   8.4241  58.5019 0004897 150.0838 218.5015  1.00271245 40183
YAMAL 300K              
1 38978U 12061B   23323.53313326  .00000078  00000+0  00000+0 0  9997
2 38978   0.0101 319.8557 0000271 265.6058 207.7482  1.00268908 40197
STAR ONE C3             
1 38991U 12062A   23323.50952037 -.00000241  00000+0  00000+0 0  9991
2 38991   0.0588  95.7247 0002089 141.7493 289.2676  1.00272280 40326
EUTELSAT 21B            
1 38992U 12062B   23323.57999896  .00000137  00000+0  00000+0 0  9996
2 38992   0.0695   4.0983 0002816 239.9568  44.7100  1.00270122 40393
ECHOSTAR 16             
1 39008U 12065A   23323.34857868 -.00000274  00000+0  00000+0 0  9998
2 39008   0.0117 287.4105 0002029 319.1883 235.5375  1.00270622 40198
CHINASAT 12 (ZX 12)     
1 39017U 12067A   23323.52151969 -.00000200  00000+0  00000+0 0  9998
2 39017   0.0050 315.3586 0003179 282.9726  95.2392  1.00271951 40071
EUTELSAT 70B            
1 39020U 12069A   23323.58974550 -.00000037  00000+0  00000+0 0  9997
2 39020   0.0653   1.9842 0004750 234.8355 104.3661  1.00271676 40072
YAMAL 402               
1 39022U 12070A   23323.58661269  .00000093  00000+0  00000+0 0  9992
2 39022   0.0106   1.7496 0004464 237.6184  85.0981  1.00270823 39962
SKYNET 5D               
1 39034U 12075A   23323.58626459  .00000106  00000+0  00000+0 0  9997
2 39034   0.0712 352.3783 0004210 242.9498  86.8445  1.00269821 39722
MEXSAT 3                
1 39035U 12075B   23323.55284786 -.00000018  00000+0  00000+0 0  9991
2 39035   0.0156 331.0529 0001907 267.9911 263.5303  1.00270505 39755
TDRS 11                 
1 39070U 13004A   23323.46939306  .00000086  00000+0  00000+0 0  9992
2 39070   2.6942   3.8544 0002649  62.8503 346.1044  1.00272443 37266
AMAZONAS 3              
1 39078U 13006A   23323.49193194 -.00000275  00000+0  00000+0 0  9993
2 39078   0.0231 202.4345 0004833  22.1131 309.8415  1.00272549 35472
AZERSPACE 1             
1 39079U 13006B   23323.58487223  .00000140  00000+0  00000+0 0  9993
2 39079   0.0335  91.7333 0001150 116.4768 106.7379  1.00268319 39372
SBIRS GEO-2 (USA 241)   
1 39120U 13011A   23322.85180727 -.00000247  00000+0  00000+0 0  9993
2 39120   2.6060  42.6231 0002334 196.4481  87.2262  1.00271110 39095
EUTELSAT 117 WEST A     
1 39122U 13012A   23323.55249977 -.00000005  00000+0  00000+0 0  9999
2 39122   0.0520  83.9827 0002798 147.6686 268.7916  1.00270736 39004
ANIK G1                 
1 39127U 13014A   23323.52063203 -.00000066  00000+0  00000+0 0  9996
2 39127   0.0515  99.2605 0002597 144.0801 255.1034  1.00271342 38828
CHINASAT 11 (ZX 11)     
1 39157U 13020A   23323.52360822 -.00000283  00000+0  00000+0 0  9994
2 39157   0.0151 277.7325 0002427   1.7189  65.2726  1.00270267 38462
EUTELSAT 7B             
1 39163U 13022A   23323.57712721  .00000056  00000+0  00000+0 0  9994
2 39163   0.0777  28.8780 0003392 285.3132 318.9463  1.00272475 38530
WGS F5 (USA 243)        
1 39168U 13024A   23323.42196566 -.00000276  00000+0  00000+0 0  9993
2 39168   0.0126 275.3165 0000079 282.0928 320.2210  1.00270324 37744
SES-6                   
1 39172U 13026A   23323.49602201 -.00000253  00000+0  00000+0 0  9990
2 39172   0.0214 354.1814 0002338 245.6316 316.5456  1.00270681 38297
IRNSS-1A                
1 39199U 13034A   23318.93010885  .00000093  00000+0  00000+0 0  9993
2 39199  33.5898  77.6316 0022348 181.5935 184.3348  1.00275899 37899
MUOS-2                  
1 39206U 13036A   23323.39722436  .00000073  00000+0  00000+0 0  9990
2 39206   3.2920  37.0183 0058812 180.5719 166.5566  1.00273266 37759
ALPHASAT                
1 39215U 13038A   23323.58069514  .00000141  00000+0  00000+0 0  9990
2 39215   2.8583   9.3155 0002292 214.6581  68.2520  1.00268038 34584
INSAT-3D                
1 39216U 13038B   23323.52038838 -.00000149  00000+0  00000+0 0  9999
2 39216   0.0443 101.6025 0002123 142.8967  83.2194  1.00270338 37645
WGS F6 (USA 244)        
1 39222U 13041A   23323.54884481  .00000096  00000+0  00000+0 0  9995
2 39222   0.0102 277.3994 0000249 312.9081 250.4139  1.00270757 36623
ES'HAIL 1               
1 39233U 13044A   23323.58078216  .00000151  00000+0  00000+0 0  9997
2 39233   0.0522 346.1225 0002012 253.7682  53.0592  1.00274937 37199
GSAT-7                  
1 39234U 13044B   23323.51882198 -.00000070  00000+0  00000+0 0  9994
2 39234   0.0643  95.8204 0009415 163.4252  59.8514  1.00271157 35897
AMOS-4                  
1 39237U 13045A   23323.58861421  .00000014  00000+0  00000+0 0  9998
2 39237   0.0113 133.4153 0002326 141.4803  60.3868  1.00271090 37523
AEHF-3 (USA 246)        
1 39256U 13050A   23323.54475473  .00000142  00000+0  00000+0 0  9991
2 39256   2.9526  73.7022 0053597 175.2020 210.4566  1.00270224 36245
ASTRA 2E                
1 39285U 13056A   23323.58139132  .00000157  00000+0  00000+0 0  9998
2 39285   0.0637 334.3391 0002365 265.3584  56.4462  1.00269801 37004
FM-6                    
1 39360U 13058A   23323.39007552 -.00000009  00000+0  00000+0 0  9990
2 39360   0.0184 307.5492 0000426 194.4604 300.4469  1.00271769 36622
RADUGA-1M 3             
1 39375U 13062A   23323.58269667  .00000163  00000+0  00000+0 0  9999
2 39375   3.5568  83.7368 0001492 339.9852 239.4140  1.00271720 36671
SES-8                   
1 39460U 13071A   23323.52299905 -.00000262  00000+0  00000+0 0  9997
2 39460   0.0173 276.9746 0001059 260.3253 164.2926  1.00270295 34993
INMARSAT 5-F1           
1 39476U 13073A   23323.19980042  .00000036  00000+0  00000+0 0  9996
2 39476   0.0163 290.7709 0000564 154.4504 107.3107  1.00270943 36153
TKSAT-1 (TUPAC KATARI)  
1 39481U 13075A   23323.55833030 -.00000187  00000+0  00000+0 0  9996
2 39481   0.0130 232.8622 0002428   9.9907 289.3001  1.00271171 36165
EXPRESS-AM5             
1 39487U 13077A   23323.38869615 -.00000272  00000+0  00000+0 0  9998
2 39487   0.0150 268.4328 0001608  39.0395  30.6732  1.00271688 36920
GSAT-14                 
1 39498U 14001A   23323.51882198 -.00000070  00000+0  00000+0 0  9990
2 39498   0.0450 107.2299 0006292 147.4953  64.3650  1.00270830 35953
THAICOM 6               
1 39500U 14002A   23323.51969220 -.00000114  00000+0  00000+0 0  9996
2 39500   0.0631 108.6907 0002597  76.9999 138.1986  1.00272402 36027
TDRS 12                 
1 39504U 14004A   23323.42431528 -.00000265  00000+0  00000+0 0  9994
2 39504   3.5705 358.2692 0004599 224.1318 307.6858  1.00271333 34842
ABS-2                   
1 39508U 14006A   23323.51899602 -.00000079  00000+0  00000+0 0  9994
2 39508   0.0435  91.6351 0003670 139.3311  89.1011  1.00270799 35857
ATHENA-FIDUS            
1 39509U 14006B   23323.54354877  .00000161  00000+0  00000+0 0  9999
2 39509   0.0176 273.0732 0001375 317.1467  61.5919  1.00269603 35647
TURKSAT 4A              
1 39522U 14007A   23323.54354877  .00000153  00000+0  00000+0 0  9996
2 39522   0.0201 262.2518 0005060 347.4226  46.3388  1.00271734 35556
EXPRESS-AT1             
1 39612U 14010A   23323.58687375  .00000085  00000+0  00000+0 0  9990
2 39612   0.0155 282.7301 0000694 246.9132 156.0151  1.00271562 35385
EXPRESS-AT2             
1 39613U 14010B   23323.56507646 -.00000274  00000+0  00000+0 0  9992
2 39613   0.0162 284.1805 0001344 350.1743 127.2720  1.00272996 35078
AMAZONAS 4A             
1 39616U 14011A   23323.46854891 -.00000244  00000+0  00000+0 0  9999
2 39616   0.0332 237.5698 0004823 359.7429 275.6147  1.00268375 35272
ASTRA 5B                
1 39617U 14011B   23323.58043407  .00000144  00000+0  00000+0 0  9994
2 39617   0.0545 315.5688 0004077 294.8734  40.3894  1.00269812 35233
IRNSS-1B                
1 39635U 14017A   23317.92725828  .00000109  00000+0  00000+0 0  9996
2 39635  28.5653 256.4782 0018083 187.2848 358.0237  1.00278334 35306
LUCH-5V                 
1 39727U 14023A   23323.52291205 -.00000261  00000+0  00000+0 0  9995
2 39727   2.7687  77.0054 0003887 181.7648  82.5314  1.00272913 34920
KAZSAT-3                
1 39728U 14023B   23323.58739590  .00000067  00000+0  00000+0 0  9999
2 39728   0.0210 256.0581 0000111 357.6329  74.6497  1.00273445 33019
EUTELSAT 3B             
1 39773U 14030A   23323.57625698  .00000027  00000+0  00000+0 0  9995
2 39773   0.0791  37.6658 0005717 186.2747  44.9780  1.00270565 34632
ASIASAT 8 (AMOS-7)      
1 40107U 14046A   23323.57495164 -.00000026  00000+0  00000+0 0  9998
2 40107   0.0428  97.1347 0001957 128.8877  35.4555  1.00270235 92718
ASIASAT 6               
1 40141U 14052A   23323.60844662 -.00000355  00000+0  00000+0 0  9993
2 40141   0.0144 283.7722 0000850 344.3244 129.2651  1.00269847 33637
OPTUS 10                
1 40146U 14054A   23323.57757859 -.00000140  00000+0  00000+0 0  9999
2 40146   0.0937  76.5368 0003979 143.4323 202.3342  1.00270293 33599
MEASAT-3B               
1 40147U 14054B   23323.55303810 -.00000235  00000+0  00000+0 0  9997
2 40147   0.0688  68.8275 0000677 257.5103  22.6136  1.00270790 33483
LUCH (OLYMP-K 1)        
1 40258U 14058A   23323.35719392 -.00000133  00000+0  00000+0 0  9995
2 40258   0.0064 284.5159 0001049 311.2425 292.9364  1.00271524 31569
